FENGYUN 3B              
1 37214U 10059A   17346.47639672  .00000006  00000-0  25735-4 0  9999
2 37214  98.9210 305.3378 0017271 356.3464   3.7577 14.15870064367771
